NORAD_CAT_ID,OBJECT_NAME,OBJECT_TYPE,EPOCH,MEAN_MOTION,ECCENTRICITY,INCLINATION,RA_OF_ASC_NODE,ARG_OF_PERICENTER,MEAN_ANOMALY,BSTAR,MEAN_MOTION_DOT,MEAN_MOTION_DDOT,TLE_LINE0,TLE_LINE1,TLE_LINE2,SEMIMAJOR_AXIS,PERIOD,APOGEE,PERIGEE,DECAYED
50839.0,STARLINK-3320,PAYLOAD,2023-08-01 00:17:42,15.08833894,0.0001441,53.2168,131.3656,108.1629,251.952,-7.5489e-05,-1.489e-05,0.0,0 STARLINK-3320,1 50839U 22001AN  23213.01229644 -.00001489  00000-0 -75489-4 0  9990,2 50839  53.2168 131.3656 0001441 108.1629 251.9520 15.08833894 87866,6917.899,95.438,540.761,538.767,0.0
50839.0,STARLINK-3320,PAYLOAD,2023-08-02 01:43:52,15.08841615,0.0001256,53.2165,126.6077,99.1522,260.9612,2.8293e-05,1.62e-06,0.0,0 STARLINK-3320,1 50839U 22001AN  23214.07213720  .00000162  00000-0  28293-4 0  9991,2 50839  53.2165 126.6077 0001256  99.1522 260.9612 15.08841615 88023,6917.875,95.437,540.609,538.872,0.0
50839.0,STARLINK-3320,PAYLOAD,2023-08-03 03:10:02,15.08852105,0.000122,53.2161,121.8495,91.0925,269.0207,0.00042847,6.54e-05,0.0,0 STARLINK-3320,1 50839U 22001AN  23215.13197690  .00006540  00000-0  42847-3 0  9992,2 50839  53.2161 121.8495 0001220  91.0925 269.0207 15.08852105 88182,6917.843,95.437,540.552,538.864,0.0
50839.0,STARLINK-3320,PAYLOAD,2023-08-03 23:50:04,15.08835775,0.000115,53.2156,117.983,101.8819,258.2302,6.6458e-05,7.7e-06,0.0,0 STARLINK-3320,1 50839U 22001AN  23215.99310544  .00000770  00000-0  66458-4 0  9995,2 50839  53.2156 117.9830 0001150 101.8819 258.2302 15.08835775 88314,6917.893,95.438,540.554,538.963,0.0
50839.0,STARLINK-3320,PAYLOAD,2023-08-05 02:51:37,15.08854489,0.0001256,53.2165,112.927,91.1557,268.9579,0.00055813,8.609e-05,0.0,0 STARLINK-3320,1 50839U 22001AN  23217.11918441  .00008609  00000-0  55813-3 0  9992,2 50839  53.2165 112.9270 0001256  91.1557 268.9579 15.08854489 88489,6917.836,95.437,540.57,538.832,0.0
50839.0,STARLINK-3320,PAYLOAD,2023-08-06 17:00:52,15.08830312,0.0001454,53.2164,105.7893,103.2663,256.8491,-0.00038255,-6.369e-05,0.0,0 STARLINK-3320,1 50839U 22001AN  23218.70894221 -.00006369  00000-0 -38255-3 0  9991,2 50839  53.2164 105.7893 0001454 103.2663 256.8491 15.08830312 88727,6917.91,95.438,540.781,538.769,0.0
50839.0,STARLINK-3320,PAYLOAD,2023-08-07 02:33:12,15.08820649,0.0001129,53.2159,104.0072,69.4702,290.6412,-0.00034433,-5.761e-05,0.0,0 STARLINK-3320,1 50839U 22001AN  23219.10639317 -.00005761  00000-0 -34433-3 0  9998,2 50839  53.2159 104.0072 0001129  69.4702 290.6412 15.08820649 88785,6917.94,95.439,540.586,539.024,0.0
50839.0,STARLINK-3320,PAYLOAD,2023-08-08 00:48:36,15.08840708,0.0001147,53.2163,99.8454,69.8176,290.2939,0.00058565,9.045e-05,0.0,0 STARLINK-3320,1 50839U 22001AN  23220.03375867  .00009045  00000-0  58565-3 0  9998,2 50839  53.2163  99.8454 0001147  69.8176 290.2939 15.08840708 88928,6917.878,95.438,540.537,538.95,0.0
50839.0,STARLINK-3320,PAYLOAD,2023-08-09 02:14:45,15.08887174,0.0001107,53.2162,95.087,67.2285,292.8825,0.0012887,0.00020308,0.0,0 STARLINK-3320,1 50839U 22001AN  23221.09358215  .00020308  00000-0  12887-2 0  9994,2 50839  53.2162  95.0870 0001107  67.2285 292.8825 15.08887174 89084,6917.736,95.435,540.367,538.835,0.0
50839.0,STARLINK-3320,PAYLOAD,2023-08-10 00:30:09,15.08850026,0.0001019,53.2164,90.9248,81.1678,278.943,0.00044376,6.784e-05,0.0,0 STARLINK-3320,1 50839U 22001AN  23222.02094505  .00006784  00000-0  44376-3 0  9998,2 50839  53.2164  90.9248 0001019  81.1678 278.9430 15.08850026 89221,6917.85,95.437,540.42,539.01,0.0
50839.0,STARLINK-3320,PAYLOAD,2023-08-10 14:48:38,15.0883746,0.0001351,53.2148,88.2479,81.29,278.8245,0.00034177,5.155e-05,0.0,0 STARLINK-3320,1 50839U 22001AN  23222.61711027  .00005155  00000-0  34177-3 0  9997,2 50839  53.2148  88.2479 0001351  81.2900 278.8245 15.08837460 89317,6917.888,95.438,540.688,538.819,0.0
50839.0,STARLINK-3320,PAYLOAD,2023-08-11 08:17:52,15.08835038,0.0001309,53.2136,84.9796,71.8595,288.254,0.00016041,2.266e-05,0.0,0 STARLINK-3320,1 50839U 22001AN  23223.34575192  .00002266  00000-0  16041-3 0  9999,2 50839  53.2136  84.9796 0001309  71.8595 288.2540 15.08835038 89421,6917.896,95.438,540.666,538.855,0.0
50839.0,STARLINK-3320,PAYLOAD,2023-08-12 20:51:45,15.08844152,0.0001217,53.2179,78.135,92.4632,267.6499,0.00038227,5.802e-05,0.0,0 STARLINK-3320,1 50839U 22001AN  23224.86927135  .00005802  00000-0  38227-3 0  9994,2 50839  53.2179  78.1350 0001217  92.4632 267.6499 15.08844152 89654,6917.868,95.437,540.575,538.891,0.0
50839.0,STARLINK-3320,PAYLOAD,2023-08-13 19:07:09,15.08838285,0.0001164,53.2172,73.9724,86.955,273.1576,8.5779e-05,1.078e-05,0.0,0 STARLINK-3320,1 50839U 22001AN  23225.79663392  .00001078  00000-0  85779-4 0  9995,2 50839  53.2172  73.9724 0001164  86.9550 273.1576 15.08838285 89796,6917.886,95.438,540.556,538.945,0.0
50839.0,STARLINK-3320,PAYLOAD,2023-08-14 23:44:05,15.0884743,0.0001299,53.2174,68.6214,87.134,272.9801,6.9549e-05,8.19e-06,0.0,0 STARLINK-3320,1 50839U 22001AN  23226.98894917  .00000819  00000-0  69549-4 0  9995,2 50839  53.2174  68.6214 0001299  87.1340 272.9801 15.08847430 89972,6917.858,95.437,540.621,538.824,0.0
50839.0,STARLINK-3320,PAYLOAD,2023-08-15 14:02:33,15.08838389,0.0001113,53.2169,65.946,94.2934,265.8186,6.7196e-05,7.82e-06,0.0,0 STARLINK-3320,1 50839U 22001AN  23227.58511366  .00000782  00000-0  67196-4 0  9991,2 50839  53.2169  65.9460 0001113  94.2934 265.8186 15.08838389 90064,6917.885,95.438,540.52,538.98,0.0
50839.0,STARLINK-3320,PAYLOAD,2023-08-16 05:56:24,15.08846014,9.48e-05,53.217,62.972,86.9735,273.1366,0.00013506,1.863e-05,0.0,0 STARLINK-3320,1 50839U 22001AN  23228.24750888  .00001863  00000-0  13506-3 0  9995,2 50839  53.2170  62.9720 0000948  86.9735 273.1366 15.08846014 90161,6917.862,95.437,540.383,539.071,0.0
50839.0,STARLINK-3320,PAYLOAD,2023-08-16 13:53:21,15.08835681,0.0001811,53.2187,61.4851,90.4812,269.6387,8.6112e-05,1.082e-05,0.0,0 STARLINK-3320,1 50839U 22001AN  23228.57871612  .00001082  00000-0  86112-4 0  9997,2 50839  53.2187  61.4851 0001811  90.4812 269.6387 15.08835681 90211,6917.894,95.438,541.011,538.506,0.0
50839.0,STARLINK-3320,PAYLOAD,2023-08-17 21:41:03,15.08843642,0.0001458,53.216,55.5373,80.1067,280.009,0.00010378,1.364e-05,0.0,0 STARLINK-3320,1 50839U 22001AN  23229.90351437  .00001364  00000-0  10378-3 0  9996,2 50839  53.2160  55.5373 0001458  80.1067 280.0090 15.08843642 90416,6917.869,95.437,540.743,538.726,0.0
50839.0,STARLINK-3320,PAYLOAD,2023-08-18 18:21:04,15.08834542,0.0001254,53.2142,51.6722,88.1892,271.9244,0.00028166,4.197e-05,0.0,0 STARLINK-3320,1 50839U 22001AN  23230.76464032  .00004197  00000-0  28166-3 0  9999,2 50839  53.2142  51.6722 0001254  88.1892 271.9244 15.08834542 90542,6917.897,95.438,540.63,538.895,0.0
50839.0,STARLINK-3320,PAYLOAD,2023-08-19 21:22:37,15.08840945,0.000134,53.2153,46.6177,83.0261,277.0884,0.00013748,1.901e-05,0.0,0 STARLINK-3320,1 50839U 22001AN  23231.89071748  .00001901  00000-0  13748-3 0  9992,2 50839  53.2153  46.6177 0001340  83.0261 277.0884 15.08840945 90712,6917.878,95.437,540.669,538.816,0.0
50839.0,STARLINK-3320,PAYLOAD,2023-08-20 22:48:47,15.08848143,0.0001158,53.2175,41.8579,97.8055,262.3068,0.00011048,1.471e-05,0.0,0 STARLINK-3320,1 50839U 22001AN  23232.95055140  .00001471  00000-0  11048-3 0  9991,2 50839  53.2175  41.8579 0001158  97.8055 262.3068 15.08848143 90876,6917.855,95.437,540.522,538.919,0.0
50839.0,STARLINK-3320,PAYLOAD,2023-08-21 11:31:53,15.08836903,0.000145,53.2165,39.4802,91.2866,268.8292,4.6389e-05,4.5e-06,0.0,0 STARLINK-3320,1 50839U 22001AN  23233.48048219  .00000450  00000-0  46389-4 0  9992,2 50839  53.2165  39.4802 0001450  91.2866 268.8292 15.08836903 90950,6917.89,95.438,540.758,538.752,0.0
50839.0,STARLINK-3320,PAYLOAD,2023-08-21 22:39:35,15.08844126,0.0001519,53.2182,37.3968,101.821,258.2953,7.5393e-05,9.12e-06,0.0,0 STARLINK-3320,1 50839U 22001AN  23233.94415657  .00000912  00000-0  75393-4 0  9997,2 50839  53.2182  37.3968 0001519 101.8210 258.2953 15.08844126 91028,6917.868,95.437,540.784,538.682,0.0
50839.0,STARLINK-3320,PAYLOAD,2023-08-22 22:30:22,15.0884014,0.0001611,53.2187,32.9344,123.5006,236.614,2.5553e-05,1.19e-06,0.0,0 STARLINK-3320,1 50839U 22001AN  23234.93776035  .00000119  00000-0  25553-4 0  9999,2 50839  53.2187  32.9344 0001611 123.5006 236.6140 15.08840140 91175,6917.88,95.438,540.859,538.63,0.0
50839.0,STARLINK-3320,PAYLOAD,2023-08-23 09:38:05,15.08834318,0.0001478,53.2188,30.8554,85.9064,274.2097,-2.9226e-05,-7.53e-06,0.0,0 STARLINK-3320,1 50839U 22001AN  23235.40144867 -.00000753  00000-0 -29226-4 0  9991,2 50839  53.2188  30.8554 0001478  85.9064 274.2097 15.08834318 91249,6917.898,95.438,540.785,538.74,0.0
50839.0,STARLINK-3320,PAYLOAD,2023-08-24 11:04:14,15.08850516,0.0001089,53.2178,26.0992,90.458,269.6537,-9.6562e-05,-1.825e-05,0.0,0 STARLINK-3320,1 50839U 22001AN  23236.46127821 -.00001825  00000-0 -96562-4 0  9997,2 50839  53.2178  26.0992 0001089  90.4580 269.6537 15.08850516 90124,6917.848,95.437,540.467,538.96,0.0
50839.0,STARLINK-3320,PAYLOAD,2023-08-25 10:55:02,15.08824642,0.0001099,53.2187,21.639,100.8401,259.2715,0.00033037,4.972e-05,0.0,0 STARLINK-3320,1 50839U 22001AN  23237.45489060  .00004972  00000-0  33037-3 0  9994,2 50839  53.2187  21.6390 0001099 100.8401 259.2715 15.08824642 91558,6917.927,95.439,540.553,539.032,0.0
50839.0,STARLINK-3320,PAYLOAD,2023-08-25 18:51:57,15.08847646,0.0001158,53.2183,20.152,91.0131,269.0994,0.00011592,1.558e-05,0.0,0 STARLINK-3320,1 50839U 22001AN  23237.78607916  .00001558  00000-0  11592-3 0  9991,2 50839  53.2183  20.1520 0001158  91.0131 269.0994 15.08847646 91603,6917.857,95.437,540.523,538.921,0.0
50839.0,STARLINK-3320,PAYLOAD,2023-08-26 09:10:26,15.08840144,0.0001595,53.2186,17.4742,118.2507,241.8647,-8.0978e-06,-4.17e-06,0.0,0 STARLINK-3320,1 50839U 22001AN  23238.38224609 -.00000417  00000-0 -80978-5 0  9993,2 50839  53.2186  17.4742 0001595 118.2507 241.8647 15.08840144 91693,6917.88,95.438,540.848,538.642,0.0
